ATLAS CENTAUR 2         
1 00694U 63047A   26015.73324481  .00001047  00000+0  11552-3 0  9993
2 00694  30.3548 131.5529 0548467 333.6434  23.7212 14.11900185124138
THOR AGENA D R/B        
1 00733U 64002A   26015.98229791  .00000123  00000+0  61053-4 0  9990
2 00733  99.1220  26.4537 0033700  52.9609 307.4648 14.33982157230740
SL-3 R/B                
1 00877U 64053B   26015.65438767  .00000117  00000+0  47065-4 0  9994
2 00877  65.0773 126.7182 0076693 309.1760  50.2543 14.61306029259047
SL-8 R/B                
1 02802U 67045B   26015.63439739  .00000143  00000+0  47243-4 0  9993
2 02802  74.0112  87.1724 0062922 107.5758 253.2286 14.45572318 81357
SL-8 R/B                
1 03230U 68040B   26015.59457387  .00002099  00000+0  15892-3 0  9995
2 03230  74.0310  62.1488 0026323 259.1199 100.7027 15.02797141 82033
OAO 2                   
1 03597U 68110A   26015.86896350  .00000152  00000+0  46112-4 0  9994
2 03597  34.9912 200.1256 0005027 139.6371 220.4694 14.47267718 11448
ISIS 1                  
1 03669U 69009A   26015.78577155  .00000252  00000+0  17398-3 0  9996
2 03669  88.4526 161.0750 1707747 195.9183 158.1042 11.30378112342555
SERT 2                  
1 04327U 70009A   26015.82602829  .00000001  00000+0  57220-4 0  9993
2 04327  99.2692 321.8313 0004263 307.9714 106.8589 13.58723070772719
SL-3 R/B                
1 05118U 71028B   26015.96012517  .00024308  00000+0  33498-3 0  9994
2 05118  81.2388 116.9489 0018351 118.5148 241.7954 15.56869984980450
ASTEX 1                 
1 05560U 71089A   26015.78029112  .00000315  00000+0  80456-4 0  9990
2 05560  92.7158 134.6370 0013394 261.9371  98.0315 14.50690758854630
SL-8 R/B                
1 05730U 71119B   26015.81914199  .00004776  00000+0  25010-3 0  9994
2 05730  73.8886 274.4429 0556345 251.8552 102.1285 14.36494084647891
OAO 3 (COPERNICUS)      
1 06153U 72065A   26015.95286169  .00000226  00000+0  50716-4 0  9997
2 06153  35.0042 237.7674 0005864  89.0692  36.8518 14.59941746838486
