CCSDS_OMM_VERS = 2.0
CREATION_DATE  = 
ORIGINATOR     = 

OBJECT_NAME    = ATLAS CENTAUR 2
OBJECT_ID      = 1963-047A
CENTER_NAME    = EARTH
REF_FRAME      = TEME
TIME_SYSTEM    = UTC
MEAN_ELEMENT_THEORY = SGP/SGP4

EPOCH          = 2026-01-15T17:35:52.351584
MEAN_MOTION    = 14.11900185
ECCENTRICITY   = .05484671
INCLINATION    = 30.3548
RA_OF_ASC_NODE = 131.5529
ARG_OF_PERICENTER = 333.6434
MEAN_ANOMALY   = 23.7212

EPHEMERIS_TYPE = 0
CLASSIFICATION_TYPE = U
NORAD_CAT_ID   = 694
ELEMENT_SET_NO = 999
REV_AT_EPOCH   = 12413
BSTAR          = .11551538E-3
MEAN_MOTION_DOT = .1047E-4
MEAN_MOTION_DDOT = 0

CCSDS_OMM_VERS = 2.0
CREATION_DATE  = 
ORIGINATOR     = 

OBJECT_NAME    = THOR AGENA D R/B
OBJECT_ID      = 1964-002A
CENTER_NAME    = EARTH
REF_FRAME      = TEME
TIME_SYSTEM    = UTC
MEAN_ELEMENT_THEORY = SGP/SGP4

EPOCH          = 2026-01-15T23:34:30.539424
MEAN_MOTION    = 14.33982157
ECCENTRICITY   = .00337002
INCLINATION    = 99.1220
RA_OF_ASC_NODE = 26.4537
ARG_OF_PERICENTER = 52.9609
MEAN_ANOMALY   = 307.4648

EPHEMERIS_TYPE = 0
CLASSIFICATION_TYPE = U
NORAD_CAT_ID   = 733
ELEMENT_SET_NO = 999
REV_AT_EPOCH   = 23074
BSTAR          = .6105325E-4
MEAN_MOTION_DOT = .123E-5
MEAN_MOTION_DDOT = 0

CCSDS_OMM_VERS = 2.0
CREATION_DATE  = 
ORIGINATOR     = 

OBJECT_NAME    = SL-3 R/B
OBJECT_ID      = 1964-053B
CENTER_NAME    = EARTH
REF_FRAME      = TEME
TIME_SYSTEM    = UTC
MEAN_ELEMENT_THEORY = SGP/SGP4

EPOCH          = 2026-01-15T15:42:19.094688
MEAN_MOTION    = 14.61306029
ECCENTRICITY   = .00766935
INCLINATION    = 65.0773
RA_OF_ASC_NODE = 126.7182
ARG_OF_PERICENTER = 309.1760
MEAN_ANOMALY   = 50.2543

EPHEMERIS_TYPE = 0
CLASSIFICATION_TYPE = U
NORAD_CAT_ID   = 877
ELEMENT_SET_NO = 999
REV_AT_EPOCH   = 25904
BSTAR          = .47064864E-4
MEAN_MOTION_DOT = .117E-5
MEAN_MOTION_DDOT = 0

CCSDS_OMM_VERS = 2.0
CREATION_DATE  = 
ORIGINATOR     = 

OBJECT_NAME    = SL-8 R/B
OBJECT_ID      = 1967-045B
CENTER_NAME    = EARTH
REF_FRAME      = TEME
TIME_SYSTEM    = UTC
MEAN_ELEMENT_THEORY = SGP/SGP4

EPOCH          = 2026-01-15T15:13:31.934496
MEAN_MOTION    = 14.45572318
ECCENTRICITY   = .0062922
INCLINATION    = 74.0112
RA_OF_ASC_NODE = 87.1724
ARG_OF_PERICENTER = 107.5758
MEAN_ANOMALY   = 253.2286

EPHEMERIS_TYPE = 0
CLASSIFICATION_TYPE = U
NORAD_CAT_ID   = 2802
ELEMENT_SET_NO = 999
REV_AT_EPOCH   = 8135
BSTAR          = .47243E-4
MEAN_MOTION_DOT = .143E-5
MEAN_MOTION_DDOT = 0

CCSDS_OMM_VERS = 2.0
CREATION_DATE  = 
ORIGINATOR     = 

OBJECT_NAME    = SL-8 R/B
OBJECT_ID      = 1968-040B
CENTER_NAME    = EARTH
REF_FRAME      = TEME
TIME_SYSTEM    = UTC
MEAN_ELEMENT_THEORY = SGP/SGP4

EPOCH          = 2026-01-15T14:16:11.182368
MEAN_MOTION    = 15.02797141
ECCENTRICITY   = .0026323
INCLINATION    = 74.0310
RA_OF_ASC_NODE = 62.1488
ARG_OF_PERICENTER = 259.1199
MEAN_ANOMALY   = 100.7027

EPHEMERIS_TYPE = 0
CLASSIFICATION_TYPE = U
NORAD_CAT_ID   = 3230
ELEMENT_SET_NO = 999
REV_AT_EPOCH   = 8203
BSTAR          = .15892E-3
MEAN_MOTION_DOT = .2099E-4
MEAN_MOTION_DDOT = 0

CCSDS_OMM_VERS = 2.0
CREATION_DATE  = 
ORIGINATOR     = 

OBJECT_NAME    = OAO 2
OBJECT_ID      = 1968-110A
CENTER_NAME    = EARTH
REF_FRAME      = TEME
TIME_SYSTEM    = UTC
MEAN_ELEMENT_THEORY = SGP/SGP4

EPOCH          = 2026-01-15T20:51:18.446400
MEAN_MOTION    = 14.47267718
ECCENTRICITY   = .00050273
INCLINATION    = 34.9912
RA_OF_ASC_NODE = 200.1256
ARG_OF_PERICENTER = 139.6371
MEAN_ANOMALY   = 220.4694

EPHEMERIS_TYPE = 0
CLASSIFICATION_TYPE = U
NORAD_CAT_ID   = 3597
ELEMENT_SET_NO = 999
REV_AT_EPOCH   = 1144
BSTAR          = .46111642E-4
MEAN_MOTION_DOT = .152E-5
MEAN_MOTION_DDOT = 0

CCSDS_OMM_VERS = 2.0
CREATION_DATE  = 
ORIGINATOR     = 

OBJECT_NAME    = ISIS 1
OBJECT_ID      = 1969-009A
CENTER_NAME    = EARTH
REF_FRAME      = TEME
TIME_SYSTEM    = UTC
MEAN_ELEMENT_THEORY = SGP/SGP4

EPOCH          = 2026-01-15T18:51:30.661920
MEAN_MOTION    = 11.30378112
ECCENTRICITY   = .1707747
INCLINATION    = 88.4526
RA_OF_ASC_NODE = 161.0750
ARG_OF_PERICENTER = 195.9183
MEAN_ANOMALY   = 158.1042

EPHEMERIS_TYPE = 0
CLASSIFICATION_TYPE = U
NORAD_CAT_ID   = 3669
ELEMENT_SET_NO = 999
REV_AT_EPOCH   = 34255
BSTAR          = .1739779E-3
MEAN_MOTION_DOT = .252E-5
MEAN_MOTION_DDOT = 0

CCSDS_OMM_VERS = 2.0
CREATION_DATE  = 
ORIGINATOR     = 

OBJECT_NAME    = SERT 2
OBJECT_ID      = 1970-009A
CENTER_NAME    = EARTH
REF_FRAME      = TEME
TIME_SYSTEM    = UTC
MEAN_ELEMENT_THEORY = SGP/SGP4

EPOCH          = 2026-01-15T19:49:28.844256
MEAN_MOTION    = 13.58723070
ECCENTRICITY   = .00042635
INCLINATION    = 99.2692
RA_OF_ASC_NODE = 321.8313
ARG_OF_PERICENTER = 307.9714
MEAN_ANOMALY   = 106.8589

EPHEMERIS_TYPE = 0
CLASSIFICATION_TYPE = U
NORAD_CAT_ID   = 4327
ELEMENT_SET_NO = 999
REV_AT_EPOCH   = 77271
BSTAR          = .57219555E-4
MEAN_MOTION_DOT = .1E-7
MEAN_MOTION_DDOT = 0

CCSDS_OMM_VERS = 2.0
CREATION_DATE  = 
ORIGINATOR     = 

OBJECT_NAME    = SL-3 R/B
OBJECT_ID      = 1971-028B
CENTER_NAME    = EARTH
REF_FRAME      = TEME
TIME_SYSTEM    = UTC
MEAN_ELEMENT_THEORY = SGP/SGP4

EPOCH          = 2026-01-15T23:02:34.814688
MEAN_MOTION    = 15.56869984
ECCENTRICITY   = .00183511
INCLINATION    = 81.2388
RA_OF_ASC_NODE = 116.9489
ARG_OF_PERICENTER = 118.5148
MEAN_ANOMALY   = 241.7954

EPHEMERIS_TYPE = 0
CLASSIFICATION_TYPE = U
NORAD_CAT_ID   = 5118
ELEMENT_SET_NO = 999
REV_AT_EPOCH   = 98045
BSTAR          = .33497713E-3
MEAN_MOTION_DOT = .24308E-3
MEAN_MOTION_DDOT = 0

CCSDS_OMM_VERS = 2.0
CREATION_DATE  = 
ORIGINATOR     = 

OBJECT_NAME    = ASTEX 1
OBJECT_ID      = 1971-089A
CENTER_NAME    = EARTH
REF_FRAME      = TEME
TIME_SYSTEM    = UTC
MEAN_ELEMENT_THEORY = SGP/SGP4

EPOCH          = 2026-01-15T18:43:37.152768
MEAN_MOTION    = 14.50690758
ECCENTRICITY   = .00133949
INCLINATION    = 92.7158
RA_OF_ASC_NODE = 134.6370
ARG_OF_PERICENTER = 261.9371
MEAN_ANOMALY   = 98.0315

EPHEMERIS_TYPE = 0
CLASSIFICATION_TYPE = U
NORAD_CAT_ID   = 5560
ELEMENT_SET_NO = 999
REV_AT_EPOCH   = 85463
BSTAR          = .80455946E-4
MEAN_MOTION_DOT = .315E-5
MEAN_MOTION_DDOT = 0

CCSDS_OMM_VERS = 2.0
CREATION_DATE  = 
ORIGINATOR     = 

OBJECT_NAME    = SL-8 R/B
OBJECT_ID      = 1971-119B
CENTER_NAME    = EARTH
REF_FRAME      = TEME
TIME_SYSTEM    = UTC
MEAN_ELEMENT_THEORY = SGP/SGP4

EPOCH          = 2026-01-15T19:39:33.867936
MEAN_MOTION    = 14.36494084
ECCENTRICITY   = .05563455
INCLINATION    = 73.8886
RA_OF_ASC_NODE = 274.4429
ARG_OF_PERICENTER = 251.8552
MEAN_ANOMALY   = 102.1285

EPHEMERIS_TYPE = 0
CLASSIFICATION_TYPE = U
NORAD_CAT_ID   = 5730
ELEMENT_SET_NO = 999
REV_AT_EPOCH   = 64789
BSTAR          = .25009823E-3
MEAN_MOTION_DOT = .4776E-4
MEAN_MOTION_DDOT = 0

CCSDS_OMM_VERS = 2.0
CREATION_DATE  = 
ORIGINATOR     = 

OBJECT_NAME    = OAO 3 (COPERNICUS)
OBJECT_ID      = 1972-065A
CENTER_NAME    = EARTH
REF_FRAME      = TEME
TIME_SYSTEM    = UTC
MEAN_ELEMENT_THEORY = SGP/SGP4

EPOCH          = 2026-01-15T22:52:07.250016
MEAN_MOTION    = 14.59941746
ECCENTRICITY   = .00058641
INCLINATION    = 35.0042
RA_OF_ASC_NODE = 237.7674
ARG_OF_PERICENTER = 89.0692
MEAN_ANOMALY   = 36.8518

EPHEMERIS_TYPE = 0
CLASSIFICATION_TYPE = U
NORAD_CAT_ID   = 6153
ELEMENT_SET_NO = 999
REV_AT_EPOCH   = 83848
BSTAR          = .50716377E-4
MEAN_MOTION_DOT = .226E-5
MEAN_MOTION_DDOT = 0

